{
  "norad_id": 66199,
  "name": "STARLINK-35509",
  "history": [
    {
      "epoch": "2026-04-13T05:28:21.701280Z",
      "apogee_km": 475.9698467269591,
      "perigee_km": 474.42962782862287,
      "latitude_deg": 1.3250168363387839e-05,
      "longitude_deg": 161.17426314698488,
      "height_km": 475.9770587857536,
      "semi_major_axis_km": 6853.33673727779,
      "eccentricity": 0.00011237,
      "inclination_deg": 53.1577,
      "raan_deg": 84.6865,
      "arg_perigee_deg": 80.9808,
      "mean_anomaly_deg": 279.132,
      "mean_motion_rev_day": 15.30205135
    },
    {
      "epoch": "2026-04-14T08:07:14.748096Z",
      "apogee_km": 475.99436202070865,
      "perigee_km": 474.2955704869137,
      "latitude_deg": 2.5310493701827927e-05,
      "longitude_deg": 115.2010474100289,
      "height_km": 475.9411057695524,
      "semi_major_axis_km": 6853.281966253811,
      "eccentricity": 0.00012394,
      "inclination_deg": 53.1586,
      "raan_deg": 79.5287,
      "arg_perigee_deg": 83.1134,
      "mean_anomaly_deg": 277.0008,
      "mean_motion_rev_day": 15.30223479
    },
    {
      "epoch": "2026-04-15T15:28:17.825664Z",
      "apogee_km": 475.291587604941,
      "perigee_km": 475.04760989002534,
      "latitude_deg": -3.957199467052408e-05,
      "longitude_deg": -2.417155700634467,
      "height_km": 475.96226959041786,
      "semi_major_axis_km": 6853.306598747483,
      "eccentricity": 1.78e-05,
      "inclination_deg": 53.1611,
      "raan_deg": 73.4609,
      "arg_perigee_deg": 28.6398,
      "mean_anomaly_deg": 331.4612,
      "mean_motion_rev_day": 15.30215229
    },
    {
      "epoch": "2026-04-16T04:00:43.767936Z",
      "apogee_km": 476.30937203044687,
      "perigee_km": 474.09738788941195,
      "latitude_deg": -5.48115869602387e-05,
      "longitude_deg": 166.53081951563954,
      "height_km": 476.2168100233274,
      "semi_major_axis_km": 6853.340379959929,
      "eccentricity": 0.00016138,
      "inclination_deg": 53.1611,
      "raan_deg": 71.032,
      "arg_perigee_deg": 96.0046,
      "mean_anomaly_deg": 264.1138,
      "mean_motion_rev_day": 15.30203915
    },
    {
      "epoch": "2026-04-17T20:46:06.988224Z",
      "apogee_km": 476.3237758292544,
      "perigee_km": 474.10178276381157,
      "latitude_deg": 3.433839296714741e-06,
      "longitude_deg": -94.37699364331566,
      "height_km": 476.1969741028408,
      "semi_major_axis_km": 6853.349779296533,
      "eccentricity": 0.00016211,
      "inclination_deg": 53.161,
      "raan_deg": 63.1447,
      "arg_perigee_deg": 94.4653,
      "mean_anomaly_deg": 265.6533,
      "mean_motion_rev_day": 15.30200767
    },
    {
      "epoch": "2026-04-18T14:00:41.901984Z",
      "apogee_km": 476.2312086736092,
      "perigee_km": 474.0916089103839,
      "latitude_deg": 4.191617506767045e-05,
      "longitude_deg": 2.9319150320720118,
      "height_km": 476.1041580746761,
      "semi_major_axis_km": 6853.298408791996,
      "eccentricity": 0.0001561,
      "inclination_deg": 53.1615,
      "raan_deg": 59.8072,
      "arg_perigee_deg": 92.4063,
      "mean_anomaly_deg": 267.7117,
      "mean_motion_rev_day": 15.30217972
    },
    {
      "epoch": "2026-04-19T13:31:29.826624Z",
      "apogee_km": 476.08681134635117,
      "perigee_km": 474.33098412735126,
      "latitude_deg": 5.4918956465810184e-05,
      "longitude_deg": 4.7157805803308435,
      "height_km": 476.1554893191401,
      "semi_major_axis_km": 6853.345897736851,
      "eccentricity": 0.0001281,
      "inclination_deg": 53.1612,
      "raan_deg": 55.2564,
      "arg_perigee_deg": 93.1609,
      "mean_anomaly_deg": 266.9539,
      "mean_motion_rev_day": 15.30202067
    },
    {
      "epoch": "2026-04-20T13:02:20.135040Z",
      "apogee_km": 476.0731792161514,
      "perigee_km": 474.51484607249586,
      "latitude_deg": 3.930675434056713e-05,
      "longitude_deg": 6.491364177844509,
      "height_km": 476.26114618398833,
      "semi_major_axis_km": 6853.431012644323,
      "eccentricity": 0.00011369,
      "inclination_deg": 53.1611,
      "raan_deg": 50.7073,
      "arg_perigee_deg": 95.0636,
      "mean_anomaly_deg": 265.0495,
      "mean_motion_rev_day": 15.30173561
    },
    {
      "epoch": "2026-04-21T12:33:06.635808Z",
      "apogee_km": 476.0196210382346,
      "perigee_km": 474.1182675810451,
      "latitude_deg": -4.336815273029207e-05,
      "longitude_deg": 8.281805819694416,
      "height_km": 476.0832545545785,
      "semi_major_axis_km": 6853.20594430964,
      "eccentricity": 0.00013872,
      "inclination_deg": 53.16,
      "raan_deg": 46.1572,
      "arg_perigee_deg": 97.0304,
      "mean_anomaly_deg": 263.0854,
      "mean_motion_rev_day": 15.30248941
    },
    {
      "epoch": "2026-04-22T12:03:54.137952Z",
      "apogee_km": 475.99709910408455,
      "perigee_km": 474.4575593411673,
      "latitude_deg": 4.4015414977794265e-05,
      "longitude_deg": 10.067790246503446,
      "height_km": 475.9925512930317,
      "semi_major_axis_km": 6853.364329222626,
      "eccentricity": 0.00011232,
      "inclination_deg": 53.1598,
      "raan_deg": 41.6067,
      "arg_perigee_deg": 80.0469,
      "mean_anomaly_deg": 280.0659,
      "mean_motion_rev_day": 15.30195894
    },
    {
      "epoch": "2026-04-23T05:18:29.056032Z",
      "apogee_km": 476.0380650997877,
      "perigee_km": 474.3291210766947,
      "latitude_deg": 3.3275199341079304e-05,
      "longitude_deg": 107.37814244960495,
      "height_km": 476.08584243519874,
      "semi_major_axis_km": 6853.3205930882405,
      "eccentricity": 0.00012468,
      "inclination_deg": 53.1592,
      "raan_deg": 38.2707,
      "arg_perigee_deg": 90.2836,
      "mean_anomaly_deg": 269.8308,
      "mean_motion_rev_day": 15.30210542
    },
    {
      "epoch": "2026-04-24T18:55:45.532416Z",
      "apogee_km": 476.2254890588556,
      "perigee_km": 474.1585250303315,
      "latitude_deg": -1.0105579019611641e-05,
      "longitude_deg": -105.76659313411744,
      "height_km": 476.22186299197494,
      "semi_major_axis_km": 6853.329007044594,
      "eccentricity": 0.0001508,
      "inclination_deg": 53.1587,
      "raan_deg": 30.9897,
      "arg_perigee_deg": 97.351,
      "mean_anomaly_deg": 262.7662,
      "mean_motion_rev_day": 15.30207724
    },
    {
      "epoch": "2026-04-25T04:20:04.607232Z",
      "apogee_km": 475.944695224307,
      "perigee_km": 474.4022891649329,
      "latitude_deg": -4.27685976219976e-05,
      "longitude_deg": 110.94584204215062,
      "height_km": 475.9709010330446,
      "semi_major_axis_km": 6853.31049219462,
      "eccentricity": 0.00011253,
      "inclination_deg": 53.159,
      "raan_deg": 29.1679,
      "arg_perigee_deg": 82.491,
      "mean_anomaly_deg": 277.6218,
      "mean_motion_rev_day": 15.30213925
    },
    {
      "epoch": "2026-04-26T22:39:30.711744Z",
      "apogee_km": 475.785910604769,
      "perigee_km": 474.5139405513819,
      "latitude_deg": 4.947526702446303e-07,
      "longitude_deg": -173.84247559200546,
      "height_km": 476.3951098303981,
      "semi_major_axis_km": 6853.286925578075,
      "eccentricity": 9.28e-05,
      "inclination_deg": 53.1599,
      "raan_deg": 20.9765,
      "arg_perigee_deg": 123.0084,
      "mean_anomaly_deg": 237.1006,
      "mean_motion_rev_day": 15.30221818
    },
    {
      "epoch": "2026-04-27T20:36:16.045056Z",
      "apogee_km": 475.9089127827101,
      "perigee_km": 474.4916426336804,
      "latitude_deg": 1.319729761854114e-06,
      "longitude_deg": -148.1839501924608,
      "height_km": 476.0551720322246,
      "semi_major_axis_km": 6853.337277708195,
      "eccentricity": 0.0001034,
      "inclination_deg": 53.1607,
      "raan_deg": 16.7252,
      "arg_perigee_deg": 86.4741,
      "mean_anomaly_deg": 273.6378,
      "mean_motion_rev_day": 15.30204954
    },
    {
      "epoch": "2026-04-28T10:42:44.811072Z",
      "apogee_km": 476.03413769026156,
      "perigee_km": 474.3742584520887,
      "latitude_deg": 5.917421133323037e-05,
      "longitude_deg": -3.1107596426601396,
      "height_km": 476.05432889158794,
      "semi_major_axis_km": 6853.341198071174,
      "eccentricity": 0.0001211,
      "inclination_deg": 53.1615,
      "raan_deg": 13.9976,
      "arg_perigee_deg": 86.6718,
      "mean_anomaly_deg": 273.4422,
      "mean_motion_rev_day": 15.30203641
    },
    {
      "epoch": "2026-04-29T10:13:32.800512Z",
      "apogee_km": 476.17959467215314,
      "perigee_km": 474.25270590041873,
      "latitude_deg": -5.824936393366849e-06,
      "longitude_deg": -1.3276217324038337,
      "height_km": 476.209773765677,
      "semi_major_axis_km": 6853.353150286285,
      "eccentricity": 0.00014058,
      "inclination_deg": 53.1621,
      "raan_deg": 9.4464,
      "arg_perigee_deg": 95.6888,
      "mean_anomaly_deg": 264.4273,
      "mean_motion_rev_day": 15.30199638
    }
  ]
}